MONITOR-2 (RS39S)       
1 57184U 23091U   26130.82306522  .00003127  00000+0  15453-3 0  9993
2 57184  97.5097 189.3525 0009939 237.8282 122.1989 15.18560660158283
SVYATOBOR 1 (RS60S)     
1 57187U 23091X   26130.82048932  .00005283  00000+0  20833-3 0  9997
2 57187  97.5110 194.4460 0008749 215.2062 144.8599 15.25973322158617
HORS 1                  
1 57188U 23091Y   26130.80847360  .00005851  00000+0  22981-3 0  9995
2 57188  97.5090 194.2014 0008217 214.6931 145.3772 15.26068176158618
VIZARD-METEO (RS38S)    
1 57189U 23091Z   26130.80381578  .00010567  00000+0  31493-3 0  9998
2 57189  97.5107 199.5732 0007462 192.3737 167.7324 15.34836495158954
SITRO-AIS 6 (CHIRKIN)   
1 57192U 23091AC  26130.85784493  .00003755  00000+0  15217-3 0  9997
2 57192  97.5089 193.7364 0010701 231.6094 128.4183 15.25235243158598
SITRO-AIS 8 (ANOKHIN)   
1 57193U 23091AD  26130.84689737  .00008734  00000+0  29265-3 0  9992
2 57193  97.5076 195.8549 0009864 222.9783 137.0688 15.31125528158732
SITRO-AIS 7 (FARTUSHNIY)
1 57194U 23091AE  26130.85358236  .00003556  00000+0  14555-3 0  9994
2 57194  97.5087 193.5758 0010531 232.7887 127.2390 15.24941865158585
AVION KALUGA 650        
1 57195U 23091AF  26130.83906784  .00003660  00000+0  17326-3 0  9995
2 57195  97.5113 190.5735 0009152 234.8590 125.1787 15.19952621158357
HORS 2                  
1 57196U 23091AG  26130.85347138  .00008301  00000+0  28006-3 0  9994
2 57196  97.5106 197.3997 0007848 205.0112 155.0750 15.30939726158812
A-SEANSAT-PG1           
1 57197U 23091AH  26130.81887637  .00011195  00000+0  32487-3 0  9997
2 57197  97.5097 199.6395 0007235 200.7410 159.3540 15.35662842158970
SITRO-AIS 10 (BURDAEV)  
1 57199U 23091AK  26130.83520866  .00012198  00000+0  33674-3 0  9992
2 57199  97.5096 200.5251 0006841 193.4381 166.6682 15.37202996159028
SITRO-AIS 9 (SHCHUKIN)  
1 57201U 23091AM  26130.85028051  .00011589  00000+0  32474-3 0  9997
2 57201  97.5094 200.2985 0007040 194.1080 165.9968 15.36749426159018
UTMN 2 (RS27S)          
1 57203U 23091AP  26130.81970705  .00007954  00000+0  26689-3 0  9999
2 57203  97.5105 197.5475 0007844 200.6291 159.4634 15.31130096158822
SITRO-AIS 12 (SMIRENNIY)
1 57204U 23091AQ  26130.84786954  .00011996  00000+0  33304-3 0  9997
2 57204  97.5107 200.7401 0006859 188.0190 172.0946 15.37033600159033
SITRO-AIS 11 (SHEFFER)  
1 57208U 23091AU  26130.80608270  .00012182  00000+0  33395-3 0  9999
2 57208  97.5105 200.9215 0006790 187.8283 172.2857 15.37423662159049
H2SAT (HEINRICH HERTZ)  
1 57213U 23093A   26130.82546388  .00000012  00000+0  00000+0 0  9992
2 57213   0.0122 235.5075 0001132 257.9306  33.0622  1.00270211 10541
KUZGTU 1 (RS47S)        
1 57217U 23091AV  26130.80587939  .00007369  00000+0  26401-3 0  9998
2 57217  97.5085 194.9275 0010251 221.2376 138.8090 15.29000980158666
QIANKUN-1               
1 57422U 23103B   26130.63819837  .00089676  52283-5  10673-3 0  9997
2 57422  96.1655 178.0730 0028546 122.3520 238.0535 16.07619512161260
FENGYUN 3F              
1 57490U 23111A   26130.83891855  .00000011  00000+0  25718-4 0  9990
2 57490  98.6860 201.5405 0001187 115.7984 244.3315 14.19932398143563
HJ-2F                   
1 57519U 23116A   26130.91006786  .00004682  00000+0  20914-3 0  9997
2 57519  97.3861 136.7939 0009318 160.6387 199.5205 15.21790725153080
XRISM                   
1 57800U 23137A   26130.70128515  .00003145  00000+0  17238-3 0  9993
2 57800  31.0019 242.3579 0007671 305.7345  54.2580 15.12150906147181
METEOR-M2 4             
1 59051U 24039A   26130.90210758  .00000018  00000+0  27683-4 0  9990
2 59051  98.6989  90.6741 0005936 280.3096  79.7413 14.22425681113965
GRBBETA                 
1 60237U 24128C   26130.85075300  .00002537  00000+0  18252-3 0  9992
2 60237  61.9910 347.2306 0045540 126.9509 233.5768 15.06330126100643
TRANSPORTER-11 OBJECT A 
1 60468U 24149A   26130.80667566  .00005460  00000+0  17759-3 0  9996
2 60468  97.3730 210.8708 0003237  24.1142 336.0250 15.32300813 96336
WARATAH SEED-1          
1 60469U 24149B   26130.76860834  .00008521  00000+0  25324-3 0  9993
2 60469  97.3687 211.3369 0002000  48.5518 311.5897 15.35007110 96377
PHISAT 2                
1 60470U 24149C   26130.78696479  .00004417  00000+0  15227-3 0  9990
2 60470  97.3756 210.2274 0002427  59.3045 300.8435 15.30520349 96274
LEMUR-2-TOMATOKECHUP    
1 60471U 24149D   26130.76907606  .00007055  00000+0  20843-3 0  9997
2 60471  97.3795 212.7447 0002131  54.1726 305.9715 15.35258706 96422
CONNECTA IOT-1          
1 60472U 24149E   26130.72081054  .00002740  00000+0  11865-3 0  9994
2 60472  97.3761 207.6523 0003335  71.1676 288.9922 15.23248586 96099
LOPEN                   
1 60473U 24149F   26130.74678231  .00009165  00000+0  24253-3 0  9999
2 60473  97.3772 213.8552 0002250  70.5005 289.6483 15.38611081 96503
