OBJECT_NAME,OBJECT_ID,EPOCH,MEAN_MOTION,ECCENTRICITY,INCLINATION,RA_OF_ASC_NODE,ARG_OF_PERICENTER,MEAN_ANOMALY,EPHEMERIS_TYPE,CLASSIFICATION_TYPE,NORAD_CAT_ID,ELEMENT_SET_NO,REV_AT_EPOCH,BSTAR,MEAN_MOTION_DOT,MEAN_MOTION_DDOT
MONITOR-2 (RS39S),2023-091U,2026-05-10T19:45:12.835008,15.18560660,.0009939,97.5097,189.3525,237.8282,122.1989,0,U,57184,999,15828,.15453E-3,.3127E-4,0
SVYATOBOR 1 (RS60S),2023-091X,2026-05-10T19:41:30.277248,15.25973322,.0008749,97.5110,194.4460,215.2062,144.8599,0,U,57187,999,15861,.20833E-3,.5283E-4,0
HORS 1,2023-091Y,2026-05-10T19:24:12.119040,15.26068176,.0008217,97.5090,194.2014,214.6931,145.3772,0,U,57188,999,15861,.22981E-3,.5851E-4,0
VIZARD-METEO (RS38S),2023-091Z,2026-05-10T19:17:29.683392,15.34836495,.0007462,97.5107,199.5732,192.3737,167.7324,0,U,57189,999,15895,.31493E-3,.10567E-3,0
SITRO-AIS 6 (CHIRKIN),2023-091AC,2026-05-10T20:35:17.801952,15.25235243,.0010701,97.5089,193.7364,231.6094,128.4183,0,U,57192,999,15859,.15217E-3,.3755E-4,0
SITRO-AIS 8 (ANOKHIN),2023-091AD,2026-05-10T20:19:31.932768,15.31125528,.0009864,97.5076,195.8549,222.9783,137.0688,0,U,57193,999,15873,.29265E-3,.8734E-4,0
SITRO-AIS 7 (FARTUSHNIY),2023-091AE,2026-05-10T20:29:09.515904,15.24941865,.0010531,97.5087,193.5758,232.7887,127.2390,0,U,57194,999,15858,.14555E-3,.3556E-4,0
AVION KALUGA 650,2023-091AF,2026-05-10T20:08:15.461376,15.19952621,.0009152,97.5113,190.5735,234.8590,125.1787,0,U,57195,999,15835,.17326E-3,.366E-4,0
HORS 2,2023-091AG,2026-05-10T20:28:59.927232,15.30939726,.0007848,97.5106,197.3997,205.0112,155.0750,0,U,57196,999,15881,.28006E-3,.8301E-4,0
A-SEANSAT-PG1,2023-091AH,2026-05-10T19:39:10.918368,15.35662842,.0007235,97.5097,199.6395,200.7410,159.3540,0,U,57197,999,15897,.32487E-3,.11195E-3,0
SITRO-AIS 10 (BURDAEV),2023-091AK,2026-05-10T20:02:42.028224,15.37202996,.0006841,97.5096,200.5251,193.4381,166.6682,0,U,57199,999,15902,.33674E-3,.12198E-3,0
SITRO-AIS 9 (SHCHUKIN),2023-091AM,2026-05-10T20:24:24.236064,15.36749426,.000704,97.5094,200.2985,194.1080,165.9968,0,U,57201,999,15901,.32474E-3,.11589E-3,0
UTMN 2 (RS27S),2023-091AP,2026-05-10T19:40:22.689120,15.31130096,.0007844,97.5105,197.5475,200.6291,159.4634,0,U,57203,999,15882,.26689E-3,.7954E-4,0
SITRO-AIS 12 (SMIRENNIY),2023-091AQ,2026-05-10T20:20:55.928256,15.37033600,.0006859,97.5107,200.7401,188.0190,172.0946,0,U,57204,999,15903,.33304E-3,.11996E-3,0
SITRO-AIS 11 (SHEFFER),2023-091AU,2026-05-10T19:20:45.545280,15.37423662,.000679,97.5105,200.9215,187.8283,172.2857,0,U,57208,999,15904,.33395E-3,.12182E-3,0
H2SAT (HEINRICH HERTZ),2023-093A,2026-05-10T19:48:40.079232,1.00270211,.0001132,0.0122,235.5075,257.9306,33.0622,0,U,57213,999,1054,0,.12E-6,0
KUZGTU 1 (RS47S),2023-091AV,2026-05-10T19:20:27.979296,15.29000980,.0010251,97.5085,194.9275,221.2376,138.8090,0,U,57217,999,15866,.26401E-3,.7369E-4,0
QIANKUN-1,2023-103B,2026-05-10T15:19:00.339168,16.07619512,.0028546,96.1655,178.0730,122.3520,238.0535,0,U,57422,999,16126,.10673E-3,.89676E-3,.52283E-5
FENGYUN 3F,2023-111A,2026-05-10T20:08:02.562720,14.19932398,.0001187,98.6860,201.5405,115.7984,244.3315,0,U,57490,999,14356,.25718E-4,.11E-6,0
HJ-2F,2023-116A,2026-05-10T21:50:29.863104,15.21790725,.0009318,97.3861,136.7939,160.6387,199.5205,0,U,57519,999,15308,.20914E-3,.4682E-4,0
XRISM,2023-137A,2026-05-10T16:49:51.036960,15.12150906,.0007671,31.0019,242.3579,305.7345,54.2580,0,U,57800,999,14718,.17238E-3,.3145E-4,0
METEOR-M2 4,2024-039A,2026-05-10T21:39:02.094912,14.22425681,.0005936,98.6989,90.6741,280.3096,79.7413,0,U,59051,999,11396,.27683E-4,.18E-6,0
GRBBETA,2024-128C,2026-05-10T20:25:05.059200,15.06330126,.004554,61.9910,347.2306,126.9509,233.5768,0,U,60237,999,10064,.18252E-3,.2537E-4,0
TRANSPORTER-11 OBJECT A,2024-149A,2026-05-10T19:21:36.777024,15.32300813,.0003237,97.3730,210.8708,24.1142,336.0250,0,U,60468,999,9633,.17759E-3,.546E-4,0
WARATAH SEED-1,2024-149B,2026-05-10T18:26:47.760576,15.35007110,.0002,97.3687,211.3369,48.5518,311.5897,0,U,60469,999,9637,.25324E-3,.8521E-4,0
PHISAT 2,2024-149C,2026-05-10T18:53:13.757856,15.30520349,.0002427,97.3756,210.2274,59.3045,300.8435,0,U,60470,999,9627,.15227E-3,.4417E-4,0
LEMUR-2-TOMATOKECHUP,2024-149D,2026-05-10T18:27:28.171584,15.35258706,.0002131,97.3795,212.7447,54.1726,305.9715,0,U,60471,999,9642,.20843E-3,.7055E-4,0
CONNECTA IOT-1,2024-149E,2026-05-10T17:17:58.030656,15.23248586,.0003335,97.3761,207.6523,71.1676,288.9922,0,U,60472,999,9609,.11865E-3,.274E-4,0
LOPEN,2024-149F,2026-05-10T17:55:21.991584,15.38611081,.000225,97.3772,213.8552,70.5005,289.6483,0,U,60473,999,9650,.24253E-3,.9165E-4,0
